ONEWEB-0136             
1 47282U 20100AA  24148.94295392  .00000342  00000+0  91468-3 0  9997
2 47282  87.8927 140.0123 0002560  83.5725 276.5695 13.12449010166255
ONEWEB-0137             
1 47283U 20100AB  24148.90007578  .00001051  00000+0  28860-2 0  9994
2 47283  87.8922 140.0468 0001936  82.4358 277.6990 13.12447406166155
ONEWEB-0138             
1 47284U 20100AC  24148.95563303 -.00004588  00000+0 -12782-1 0  9998
2 47284  87.8923 140.0468 0002103  89.8918 270.2451 13.12506848166244
ONEWEB-0139             
1 47285U 20100AD  24148.92708970  .00001805  00000+0  49837-2 0  9996
2 47285  87.8940 140.0267 0002693  87.0188 273.1249 13.12410978166317
ONEWEB-0140             
1 47286U 20100AE  24148.94929787  .00000160  00000+0  40871-3 0  9993
2 47286  87.8925 140.0246 0002204  85.9713 274.1667 13.12447118166284
ONEWEB-0141             
1 47287U 20100AF  24148.90483339 -.00002130  00000+0 -60971-2 0  9991
2 47287  87.8922 140.0390 0001832  85.8626 274.2711 13.10838610166268
ONEWEB-0142             
1 47288U 20100AG  24148.88656206  .00001102  00000+0  30276-2 0  9995
2 47288  87.8923 140.0293 0001993  79.9350 280.2003 13.12446282166250
ONEWEB-0143             
1 47289U 20100AH  24148.91595407 -.00000258  00000+0 -75279-3 0  9991
2 47289  87.8927 140.0434 0001975  87.3438 272.7917 13.12440162166231
